ONEWEB-0159             
1 48062U 21025W   25286.60408105  .00000511  00000+0  13629-2 0  9996
2 48062  87.9052   9.1990 0002058  97.3213 262.8150 13.13472043221233
ONEWEB-0164             
1 48063U 21025X   25286.28074673  .00000022  00000+0  25595-4 0  9994
2 48063  87.9052   9.2714 0001758 102.0053 258.1273 13.13470506221170
ONEWEB-0167             
1 48064U 21025Y   25286.30867393  .00000312  00000+0  81825-3 0  9996
2 48064  87.9045   9.2981 0002389 115.0744 245.0634 13.13470968221168
ONEWEB-0166             
1 48065U 21025Z   25286.48387442 -.00000187  00000+0 -54805-3 0  9998
2 48065  87.9054   9.2152 0001876  95.3027 264.8316 13.13472048221261
ONEWEB-0151             
1 48066U 21025AA  25286.48557471 -.00000214  00000+0 -62139-3 0  9990
2 48066  87.9054   9.2403 0001881 105.0378 255.0960 13.13469563221204
ONEWEB-0170             
1 48067U 21025AB  25286.49403277 -.00000252  00000+0 -72475-3 0  9992
2 48067  87.9056   9.2458 0001644 116.0649 244.0649 13.13471513221162
ONEWEB-0168             
1 48068U 21025AC  25286.63115619  .00000031  00000+0  48969-4 0  9994
2 48068  87.9057   9.2000 0001990  99.2645 260.8709 13.13471769221198
ONEWEB-0173             
1 48069U 21025AD  25286.62269846  .00000359  00000+0  94743-3 0  9999
2 48069  87.9055   9.2096 0002659 108.5120 251.6298 13.13469927221438
